{
  "type": "FeatureCollection",
  "features": [
    {
      "type": "Feature",
      "properties": {
        "norad_id": 30232,
        "name": "FENGYUN 1C DEB",
        "group": "fengyun-1c-debris",
        "lat": -69.8119428434083,
        "lon": -6.432491644410202,
        "alt_km": 647.29697446516,
        "timestamp": "2025-12-23T09:49:07.357904+00:00",
        "meta_object_name": "FENGYUN 1C DEB",
        "meta_object_id": "1999-025WR",
        "meta_epoch": "2025-12-22T13:13:19.558848",
        "meta_mean_motion": 14.63665957,
        "meta_eccentricity": 0.013536,
        "meta_inclination": 98.6923,
        "meta_ra_of_asc_node": 197.2494,
        "meta_arg_of_pericenter": 319.4238,
        "meta_mean_anomaly": 94.3057,
        "meta_ephemeris_type": 0,
        "meta_classification_type": "U",
        "meta_norad_cat_id": 30232,
        "meta_element_set_no": 999,
        "meta_rev_at_epoch": 99895,
        "meta_bstar": 0.0007802572,
        "meta_mean_motion_dot": 4.576e-05,
        "meta_mean_motion_ddot": 0,
        "tle_line1": "1 30232U 99025WR  25356.55092082  .00004576  00000+0  78026-3 0  9994",
        "tle_line2": "2 30232  98.6923 197.2494 0135360 319.4238  94.3057 14.63665957998953"
      },
      "geometry": {
        "type": "Point",
        "coordinates": [
          -6.432491644410202,
          -69.8119428434083
        ]
      }
    },
    {
      "type": "Feature",
      "properties": {
        "norad_id": 30234,
        "name": "FENGYUN 1C DEB",
        "group": "fengyun-1c-debris",
        "lat": 17.47952877921192,
        "lon": -169.38429403837486,
        "alt_km": 858.1766233276903,
        "timestamp": "2025-12-23T09:49:07.357914+00:00",
        "meta_object_name": "FENGYUN 1C DEB",
        "meta_object_id": "1999-025WT",
        "meta_epoch": "2025-12-22T20:05:05.136864",
        "meta_mean_motion": 14.16877603,
        "meta_eccentricity": 0.0066746,
        "meta_inclination": 98.6335,
        "meta_ra_of_asc_node": 7.318,
        "meta_arg_of_pericenter": 46.5186,
        "meta_mean_anomaly": 77.7494,
        "meta_ephemeris_type": 0,
        "meta_classification_type": "U",
        "meta_norad_cat_id": 30234,
        "meta_element_set_no": 999,
        "meta_rev_at_epoch": 97599,
        "meta_bstar": 0.00028829368,
        "meta_mean_motion_dot": 5.48e-06,
        "meta_mean_motion_ddot": 0,
        "tle_line1": "1 30234U 99025WT  25356.83686501  .00000548  00000+0  28829-3 0  9993",
        "tle_line2": "2 30234  98.6335   7.3180 0066746  46.5186  77.7494 14.16877603975996"
      },
      "geometry": {
        "type": "Point",
        "coordinates": [
          -169.38429403837486,
          17.47952877921192
        ]
      }
    },
    {
      "type": "Feature",
      "properties": {
        "norad_id": 30235,
        "name": "FENGYUN 1C DEB",
        "group": "fengyun-1c-debris",
        "lat": 8.434466041228232,
        "lon": -163.4249145386038,
        "alt_km": 775.6052198399902,
        "timestamp": "2025-12-23T09:49:07.357924+00:00",
        "meta_object_name": "FENGYUN 1C DEB",
        "meta_object_id": "1999-025WU",
        "meta_epoch": "2025-12-22T20:12:43.121664",
        "meta_mean_motion": 14.08790768,
        "meta_eccentricity": 0.01537707,
        "meta_inclination": 98.7488,
        "meta_ra_of_asc_node": 14.7163,
        "meta_arg_of_pericenter": 209.8811,
        "meta_mean_anomaly": 328.7642,
        "meta_ephemeris_type": 0,
        "meta_classification_type": "U",
        "meta_norad_cat_id": 30235,
        "meta_element_set_no": 999,
        "meta_rev_at_epoch": 97035,
        "meta_bstar": 0.00020103828,
        "meta_mean_motion_dot": 3.44e-06,
        "meta_mean_motion_ddot": 0,
        "tle_line1": "1 30235U 99025WU  25356.84216576  .00000344  00000+0  20104-3 0  9998",
        "tle_line2": "2 30235  98.7488  14.7163 0153770 209.8811 328.7642 14.08790768970359"
      },
      "geometry": {
        "type": "Point",
        "coordinates": [
          -163.4249145386038,
          8.434466041228232
        ]
      }
    },
    {
      "type": "Feature",
      "properties": {
        "norad_id": 30237,
        "name": "FENGYUN 1C DEB",
        "group": "fengyun-1c-debris",
        "lat": -76.77725725997716,
        "lon": -120.89334012738357,
        "alt_km": 752.09757017631,
        "timestamp": "2025-12-23T09:49:07.357934+00:00",
        "meta_object_name": "FENGYUN 1C DEB",
        "meta_object_id": "1999-025WW",
        "meta_epoch": "2025-12-22T06:12:07.642656",
        "meta_mean_motion": 14.4101567,
        "meta_eccentricity": 0.00147637,
        "meta_inclination": 98.8256,
        "meta_ra_of_asc_node": 99.313,
        "meta_arg_of_pericenter": 275.7658,
        "meta_mean_anomaly": 138.3584,
        "meta_ephemeris_type": 0,
        "meta_classification_type": "U",
        "meta_norad_cat_id": 30237,
        "meta_element_set_no": 999,
        "meta_rev_at_epoch": 97835,
        "meta_bstar": 0.0023884849,
        "meta_mean_motion_dot": 7.65e-05,
        "meta_mean_motion_ddot": 0,
        "tle_line1": "1 30237U 99025WW  25356.25842179  .00007650  00000+0  23885-2 0  9994",
        "tle_line2": "2 30237  98.8256  99.3130 0014763 275.7658 138.3584 14.41015670978354"
      },
      "geometry": {
        "type": "Point",
        "coordinates": [
          -120.89334012738357,
          -76.77725725997716
        ]
      }
    },
    {
      "type": "Feature",
      "properties": {
        "norad_id": 30239,
        "name": "FENGYUN 1C DEB",
        "group": "fengyun-1c-debris",
        "lat": 13.130175463743715,
        "lon": 140.10005258076296,
        "alt_km": 842.2351032422112,
        "timestamp": "2025-12-23T09:49:07.357945+00:00",
        "meta_object_name": "FENGYUN 1C DEB",
        "meta_object_id": "1999-025WY",
        "meta_epoch": "2025-12-22T16:53:11.814144",
        "meta_mean_motion": 11.38263309,
        "meta_eccentricity": 0.13518447,
        "meta_inclination": 99.5656,
        "meta_ra_of_asc_node": 141.882,
        "meta_arg_of_pericenter": 12.6286,
        "meta_mean_anomaly": 350.534,
        "meta_ephemeris_type": 0,
        "meta_classification_type": "U",
        "meta_norad_cat_id": 30239,
        "meta_element_set_no": 999,
        "meta_rev_at_epoch": 54648,
        "meta_bstar": 0.025233122,
        "meta_mean_motion_dot": 8.574e-05,
        "meta_mean_motion_ddot": 0,
        "tle_line1": "1 30239U 99025WY  25356.70360896  .00008574  00000+0  25233-1 0  9991",
        "tle_line2": "2 30239  99.5656 141.8820 1351844  12.6286 350.5340 11.38263309546487"
      },
      "geometry": {
        "type": "Point",
        "coordinates": [
          140.10005258076296,
          13.130175463743715
        ]
      }
    },
    {
      "type": "Feature",
      "properties": {
        "norad_id": 30241,
        "name": "FENGYUN 1C DEB",
        "group": "fengyun-1c-debris",
        "lat": 63.73636459527185,
        "lon": 111.40187211703702,
        "alt_km": 751.4954493525456,
        "timestamp": "2025-12-23T09:49:07.357955+00:00",
        "meta_object_name": "FENGYUN 1C DEB",
        "meta_object_id": "1999-025XA",
        "meta_epoch": "2025-12-22T20:36:10.024704",
        "meta_mean_motion": 14.09556332,
        "meta_eccentricity": 0.01465995,
        "meta_inclination": 99.1491,
        "meta_ra_of_asc_node": 129.9045,
        "meta_arg_of_pericenter": 52.9669,
        "meta_mean_anomaly": 99.2054,
        "meta_ephemeris_type": 0,
        "meta_classification_type": "U",
        "meta_norad_cat_id": 30241,
        "meta_element_set_no": 999,
        "meta_rev_at_epoch": 97054,
        "meta_bstar": 0.00019056207,
        "meta_mean_motion_dot": 3.23e-06,
        "meta_mean_motion_ddot": 0,
        "tle_line1": "1 30241U 99025XA  25356.85844936  .00000323  00000+0  19056-3 0  9994",
        "tle_line2": "2 30241  99.1491 129.9045 0146599  52.9669  99.2054 14.09556332970548"
      },
      "geometry": {
        "type": "Point",
        "coordinates": [
          111.40187211703702,
          63.73636459527185
        ]
      }
    },
    {
      "type": "Feature",
      "properties": {
        "norad_id": 30242,
        "name": "FENGYUN 1C DEB",
        "group": "fengyun-1c-debris",
        "lat": -49.29107925418309,
        "lon": 41.56782982593027,
        "alt_km": 838.076443634176,
        "timestamp": "2025-12-23T09:49:07.357965+00:00",
        "meta_object_name": "FENGYUN 1C DEB",
        "meta_object_id": "1999-025XB",
        "meta_epoch": "2025-12-21T13:06:17.036064",
        "meta_mean_motion": 14.17657802,
        "meta_eccentricity": 0.0010677,
        "meta_inclination": 98.6826,
        "meta_ra_of_asc_node": 29.5172,
        "meta_arg_of_pericenter": 30.1382,
        "meta_mean_anomaly": 136.9609,
        "meta_ephemeris_type": 0,
        "meta_classification_type": "U",
        "meta_norad_cat_id": 30242,
        "meta_element_set_no": 999,
        "meta_rev_at_epoch": 97551,
        "meta_bstar": 0.00047815,
        "meta_mean_motion_dot": 9.3e-06,
        "meta_mean_motion_ddot": 0,
        "tle_line1": "1 30242U 99025XB  25355.54603051  .00000930  00000+0  47815-3 0  9999",
        "tle_line2": "2 30242  98.6826  29.5172 0010677  30.1382 136.9609 14.17657802975518"
      },
      "geometry": {
        "type": "Point",
        "coordinates": [
          41.56782982593027,
          -49.29107925418309
        ]
      }
    }
  ]
}